CCSDS_OMM_VERS,COMMENT,CREATION_DATE,ORIGINATOR,OBJECT_NAME,OBJECT_ID,CENTER_NAME,REF_FRAME,TIME_SYSTEM,MEAN_ELEMENT_THEORY,EPOCH,MEAN_MOTION,ECCENTRICITY,INCLINATION,RA_OF_ASC_NODE,ARG_OF_PERICENTER,MEAN_ANOMALY,EPHEMERIS_TYPE,CLASSIFICATION_TYPE,NORAD_CAT_ID,ELEMENT_SET_NO,REV_AT_EPOCH,BSTAR,MEAN_MOTION_DOT,MEAN_MOTION_DDOT,SEMIMAJOR_AXIS,PERIOD,APOAPSIS,PERIAPSIS,OBJECT_TYPE,RCS_SIZE,COUNTRY_CODE,LAUNCH_DATE,SITE,DECAY_DATE,FILE,GP_ID,TLE_LINE0,TLE_LINE1,TLE_LINE2
"2.0","GENERATED VIA SPACE-TRACK.ORG API","2020-08-20T14:36:10","18 SPCS","COSMOS 1818","1987-011A","EARTH","TEME","UTC","SGP4","2020-08-20T08:12:16.467264","14.31457978","0.00137760","65.0107","84.5532","282.0659","77.8881","0","U","17369","999","80468","0.00000338390000","-0.00000091","0.0000000000000","7164.998","100.596","796.734","776.993","PAYLOAD","LARGE","CIS","1987-02-01","TTMTR","","2805190","159756919","0 COSMOS 1818","1 17369U 87011A   20233.34185726 -.00000091  00000-0  33839-5 0  9991","2 17369  65.0107  84.5532 0013776 282.0659  77.8881 14.31457978804684"
"2.0","GENERATED VIA SPACE-TRACK.ORG API","2020-08-20T02:56:29","18 SPCS","IRIDIUM 136","2017-061H","EARTH","TEME","UTC","SGP4","2020-08-19T22:35:58.432128","14.34219157","0.00021770","86.4013","194.1806","96.0092","264.1351","0","U","42962","999","14993","0.00001156100000","0.00000052","0.0000000000000","7155.799","100.403","779.222","776.106","PAYLOAD","LARGE","US","2017-10-09","AFWTR","","2804968","159748406","0 IRIDIUM 136","1 42962U 17061H   20232.94164852 +.00000052 +00000-0 +11561-4 0  9991","2 42962 086.4013 194.1806 0002177 096.0092 264.1351 14.34219157149934"
"2.0","GENERATED VIA SPACE-TRACK.ORG API","2020-08-20T02:56:29","18 SPCS","COSMOS 1818","1987-011A","EARTH","TEME","UTC","SGP4","2020-08-19T20:28:02.877312","14.31457956","0.00137680","65.0107","85.9227","282.0196","77.9345","0","U","17369","999","80433","0.00000618810000","-0.00000084","0.0000000000000","7164.998","100.596","796.728","776.998","PAYLOAD","LARGE","CIS","1987-02-01","TTMTR","","2804968","159736002","0 COSMOS 1818","1 17369U 87011A   20232.85281108 -.00000084 +00000-0 +61881-5 0  9997","2 17369 065.0107 085.9227 0013768 282.0196 077.9345 14.31457956804331"
"2.0","GENERATED VIA SPACE-TRACK.ORG API","2020-08-19T17:47:06","18 SPCS","IRIDIUM 136","2017-061H","EARTH","TEME","UTC","SGP4","2020-08-19T10:52:42.470976","14.34219118","0.00021640","86.4012","194.3844","95.9741","264.1701","0","U","42962","999","14986","0.00001115000000","0.00000051","0.0000000000000","7155.799","100.403","779.213","776.116","PAYLOAD","LARGE","US","2017-10-09","AFWTR","","2804760","159724040","0 IRIDIUM 136","1 42962U 17061H   20232.45326934 +.00000051 +00000-0 +11150-4 0  9991","2 42962 086.4012 194.3844 0002164 095.9741 264.1701 14.34219118149860"
"2.0","GENERATED VIA SPACE-TRACK.ORG API","2020-08-19T14:36:09","18 SPCS","COSMOS 1818","1987-011A","EARTH","TEME","UTC","SGP4","2020-08-19T07:03:13.057632","14.31457951","0.00137540","65.0107","87.4878","281.9927","77.9616","0","U","17369","999","80453","0.00001007400000","-0.00000073","0.0000000000000","7164.998","100.596","796.718","777.008","PAYLOAD","LARGE","CIS","1987-02-01","TTMTR","","2804630","159703517","0 COSMOS 1818","1 17369U 87011A   20232.29390113 -.00000073  00000-0  10074-4 0  9997","2 17369  65.0107  87.4878 0013754 281.9927  77.9616 14.31457951804533"
"2.0","GENERATED VIA SPACE-TRACK.ORG API","2020-08-19T06:26:10","18 SPCS","IRIDIUM 136","2017-061H","EARTH","TEME","UTC","SGP4","2020-08-19T00:49:54.505632","14.34219065","0.00021590","86.4012","194.5591","96.0472","264.0970","0","U","42962","999","14980","0.00000985920000","0.00000047","0.0000000000000","7155.799","100.403","779.209","776.119","PAYLOAD","LARGE","US","2017-10-09","AFWTR","","2804453","159700127","0 IRIDIUM 136","1 42962U 17061H   20232.03465863  .00000047  00000-0  98592-5 0  9991","2 42962  86.4012 194.5591 0002159  96.0472 264.0970 14.34219065149800"
"2.0","GENERATED VIA SPACE-TRACK.ORG API","2020-08-19T01:28:02","18 SPCS","IRIDIUM 136","2017-061H","EARTH","TEME","UTC","SGP4","2020-08-18T21:28:58.517472","14.34219053","0.00021550","86.4012","194.6173","96.0554","264.0888","0","U","42962","999","14978","0.00000929260000","0.00000046","0.0000000000000","7155.799","100.403","779.206","776.122","PAYLOAD","LARGE","US","2017-10-09","AFWTR","","2804379","159695338","0 IRIDIUM 136","1 42962U 17061H   20231.89512173 +.00000046 +00000-0 +92926-5 0  9995","2 42962 086.4012 194.6173 0002155 096.0554 264.0888 14.34219053149786"
"2.0","GENERATED VIA SPACE-TRACK.ORG API","2020-08-19T01:28:02","18 SPCS","COSMOS 1818","1987-011A","EARTH","TEME","UTC","SGP4","2020-08-18T20:59:35.693088","14.31457929","0.00137450","65.0107","88.6617","281.9451","78.0092","0","U","17369","999","80419","0.00001232200000","-0.00000067","0.0000000000000","7164.998","100.596","796.711","777.015","PAYLOAD","LARGE","CIS","1987-02-01","TTMTR","","2804379","159683043","0 COSMOS 1818","1 17369U 87011A   20231.87471867 -.00000067 +00000-0 +12322-4 0  9997","2 17369 065.0107 088.6617 0013745 281.9451 078.0092 14.31457929804196"
"2.0","GENERATED VIA SPACE-TRACK.ORG API","2020-08-18T20:17:42","18 SPCS","IRIDIUM 136","2017-061H","EARTH","TEME","UTC","SGP4","2020-08-18T09:45:42.553728","14.34219039","0.00021450","86.4011","194.8211","96.0852","264.0588","0","U","42962","999","14971","0.00001084500000","0.00000050","0.0000000000000","7155.799","100.403","779.199","776.129","PAYLOAD","LARGE","US","2017-10-09","AFWTR","","2804180","159669771","0 IRIDIUM 136","1 42962U 17061H   20231.40674252 +.00000050 +00000-0 +10845-4 0  9993","2 42962 086.4011 194.8211 0002145 096.0852 264.0588 14.34219039149714"
"2.0","GENERATED VIA SPACE-TRACK.ORG API","2020-08-18T20:17:42","18 SPCS","COSMOS 1818","1987-011A","EARTH","TEME","UTC","SGP4","2020-08-18T07:34:45.871680","14.31457897","0.00137320","65.0107","90.2268","281.9318","78.0226","0","U","17369","999","80411","0.00001318800000","-0.00000065","0.0000000000000","7164.998","100.596","796.702","777.024","PAYLOAD","LARGE","CIS","1987-02-01","TTMTR","","2804180","159658525","0 COSMOS 1818","1 17369U 87011A   20231.31580870 -.00000065 +00000-0 +13188-4 0  9990","2 17369 065.0107 090.2268 0013732 281.9318 078.0226 14.31457897804110"
"2.0","GENERATED VIA SPACE-TRACK.ORG API","2020-08-18T06:36:09","18 SPCS","COSMOS 1818","1987-011A","EARTH","TEME","UTC","SGP4","2020-08-18T00:52:20.959680","14.31457876","0.00137250","65.0107","91.0094","281.8966","78.0579","0","U","17369","999","80435","0.00001340200000","-0.00000065","0.0000000000000","7164.998","100.596","796.697","777.029","PAYLOAD","LARGE","CIS","1987-02-01","TTMTR","","2803829","159645780","0 COSMOS 1818","1 17369U 87011A   20231.03635370 -.00000065  00000-0  13402-4 0  9994","2 17369  65.0107  91.0094 0013725 281.8966  78.0579 14.31457876804350"
"2.0","GENERATED VIA SPACE-TRACK.ORG API","2020-08-18T06:36:09","18 SPCS","IRIDIUM 136","2017-061H","EARTH","TEME","UTC","SGP4","2020-08-17T23:42:54.584064","14.34219021","0.00021380","86.4010","194.9958","96.1124","264.0316","0","U","42962","999","14965","0.00001193200000","0.00000053","0.0000000000000","7155.799","100.403","779.194","776.135","PAYLOAD","LARGE","US","2017-10-09","AFWTR","","2803840","159645606","0 IRIDIUM 136","1 42962U 17061H   20230.98813176  .00000053  00000-0  11932-4 0  9996","2 42962  86.4010 194.9958 0002138  96.1124 264.0316 14.34219021149650"
"2.0","GENERATED VIA SPACE-TRACK.ORG API","2020-08-18T02:37:28","18 SPCS","IRIDIUM 136","2017-061H","EARTH","TEME","UTC","SGP4","2020-08-17T22:02:26.590848","14.34219016","0.00021360","86.4010","195.0249","96.0935","264.0504","0","U","42962","999","14964","0.00001196800000","0.00000053","0.0000000000000","7155.799","100.403","779.193","776.136","PAYLOAD","LARGE","US","2017-10-09","AFWTR","","2803768","159640255","0 IRIDIUM 136","1 42962U 17061H   20230.91836332 +.00000053 +00000-0 +11968-4 0  9997","2 42962 086.4010 195.0249 0002136 096.0935 264.0504 14.34219016149644"
"2.0","GENERATED VIA SPACE-TRACK.ORG API","2020-08-18T02:37:28","18 SPCS","COSMOS 1818","1987-011A","EARTH","TEME","UTC","SGP4","2020-08-17T21:31:08.503680","14.31457848","0.00137270","65.0107","91.4007","281.8816","78.0729","0","U","17369","999","80405","0.00001160800000","-0.00000069","0.0000000000000","7164.998","100.596","796.699","777.028","PAYLOAD","LARGE","CIS","1987-02-01","TTMTR","","2803768","159629884","0 COSMOS 1818","1 17369U 87011A   20230.89662620 -.00000069 +00000-0 +11608-4 0  9995","2 17369 065.0107 091.4007 0013727 281.8816 078.0729 14.31457848804057"
"2.0","GENERATED VIA SPACE-TRACK.ORG API","2020-08-17T18:02:40","18 SPCS","IRIDIUM 136","2017-061H","EARTH","TEME","UTC","SGP4","2020-08-17T10:19:10.627104","14.34218972","0.00021230","86.4010","195.2288","96.0298","264.1140","0","U","42962","999","14957","0.00001220200000","0.00000054","0.0000000000000","7155.800","100.403","779.184","776.145","PAYLOAD","LARGE","US","2017-10-09","AFWTR","","2803564","159617062","0 IRIDIUM 136","1 42962U 17061H   20230.42998411 +.00000054 +00000-0 +12202-4 0  9993","2 42962 086.4010 195.2288 0002123 096.0298 264.1140 14.34218972149576"
"2.0","GENERATED VIA SPACE-TRACK.ORG API","2020-08-17T18:02:40","18 SPCS","COSMOS 1818","1987-011A","EARTH","TEME","UTC","SGP4","2020-08-17T08:06:18.672768","14.31457836","0.00137150","65.0107","92.9658","281.8569","78.0977","0","U","17369","999","80397","0.00000986450000","-0.00000074","0.0000000000000","7164.999","100.596","796.690","777.037","PAYLOAD","LARGE","CIS","1987-02-01","TTMTR","","2803564","159604315","0 COSMOS 1818","1 17369U 87011A   20230.33771612 -.00000074 +00000-0 +98645-5 0  9999","2 17369 065.0107 092.9658 0013715 281.8569 078.0977 14.31457836803979"
